1 35932U 09051B   18274.79166667  .00000145  00000-0  32923-4 0 00003
2 35932 098.5033 067.1301 0008911 245.3514 002.1593 14.56154823478955